{
    "links": {
        "self": "http://www.neowsapp.com/rest/v1/neo/3989204?api_key=iIulBulltgU6a56xZRHN4H3l9WmuAYTsLGpBGhQ2"
    },
    "id": "3989204",
    "neo_reference_id": "3989204",
    "name": "(2020 BD9)",
    "designation": "2020 BD9",
    "nasa_jpl_url": "http://ssd.jpl.nasa.gov/sbdb.cgi?sstr=3989204",
    "absolute_magnitude_h": 24.955,
    "estimated_diameter": {
        "kilometers": {
            "estimated_diameter_min": 0.0271365715,
            "estimated_diameter_max": 0.0606792185
        },
        "meters": {
            "estimated_diameter_min": 27.136571477,
            "estimated_diameter_max": 60.6792184987
        },
        "miles": {
            "estimated_diameter_min": 0.0168618786,
            "estimated_diameter_max": 0.0377043067
        },
        "feet": {
            "estimated_diameter_min": 89.0307491644,
            "estimated_diameter_max": 199.0788072194
        }
    },
    "is_potentially_hazardous_asteroid": false,
    "close_approach_data": [
        {
            "close_approach_date": "2020-02-02",
            "close_approach_date_full": "2020-Feb-02 22:55",
            "epoch_date_close_approach": 1580684100000,
            "relative_velocity": {
                "kilometers_per_second": "7.5725135565",
                "kilometers_per_hour": "27261.0488033853",
                "miles_per_hour": "16938.9555745257"
            },
            "miss_distance": {
                "astronomical": "0.0420549077",
                "lunar": "16.3593590953",
                "kilometers": "6291324.614966599",
                "miles": "3909247.8415091062"
            },
            "orbiting_body": "Earth"
        }
    ],
    "orbital_data": {
        "orbit_id": "6",
        "orbit_determination_date": "2020-09-11 07:46:42",
        "first_observation_date": "2020-01-25",
        "last_observation_date": "2020-02-22",
        "data_arc_in_days": 28,
        "observations_used": 56,
        "orbit_uncertainty": "8",
        "minimum_orbit_intersection": ".0374713",
        "jupiter_tisserand_invariant": "4.180",
        "epoch_osculation": "2458876.5",
        "eccentricity": ".3844112319026238",
        "semi_major_axis": "1.648952043244942",
        "inclination": "9.679201245216893",
        "ascending_node_longitude": "131.5442384149352",
        "orbital_period": "773.4112136935429",
        "perihelion_distance": "1.015076356952805",
        "perihelion_argument": "16.15951776515167",
        "aphelion_distance": "2.282827729537078",
        "perihelion_time": "2458894.310048875331",
        "mean_anomaly": "351.7099500477896",
        "mean_motion": ".4654703650865951",
        "equinox": "J2000",
        "orbit_class": {
            "orbit_class_type": "APO",
            "orbit_class_description": "Near-Earth asteroid orbits which cross the Earth’s orbit similar to that of 1862 Apollo",
            "orbit_class_range": "a (semi-major axis) > 1.0 AU; q (perihelion) < 1.017 AU"
        }
    },
    "is_sentry_object": false
}